OBJECT_NAME,OBJECT_ID,EPOCH,MEAN_MOTION,ECCENTRICITY,INCLINATION,RA_OF_ASC_NODE,ARG_OF_PERICENTER,MEAN_ANOMALY,EPHEMERIS_TYPE,CLASSIFICATION_TYPE,NORAD_CAT_ID,ELEMENT_SET_NO,REV_AT_EPOCH,BSTAR,MEAN_MOTION_DOT,MEAN_MOTION_DDOT
DUBAISAT-1,2009-041B,2026-06-17T08:38:58.291296,14.75122684,.00116485,98.0052,301.6162,73.2818,286.9668,0,U,35682,999,90512,.91483366E-4,.567E-5,0
OCEANSAT-2,2009-051A,2026-06-17T15:04:59.018304,13.99664354,.00152349,98.2324,155.4359,234.6311,125.3433,0,U,35931,999,87939,-.70275274E-4,-.14E-5,0
WORLDVIEW-2 (WV-2),2009-055A,2026-06-17T13:57:05.584896,14.37899509,.00037319,98.4737,242.0254,206.6093,153.4903,0,U,35946,999,87570,.41950314E-4,.83E-6,0
SMOS,2009-059A,2026-06-17T12:53:17.384928,14.39772733,.00013222,98.4424,355.8667,88.3589,271.7751,0,U,36036,999,87350,.70792942E-4,.178E-5,0
YAOGAN-7,2009-069A,2026-06-17T07:00:18.992736,14.78009921,.00255674,98.0071,54.1583,41.4114,318.9029,0,U,36110,999,88964,.61663728E-4,.394E-5,0
TANDEM-X,2010-030A,2026-06-15T13:04:49.708992,15.19149123,.0001884,97.4452,174.2763,86.9240,273.2210,0,U,36605,999,88639,.21672042E-4,.388E-5,0
CARTOSAT-2B,2010-035A,2026-06-17T14:38:55.617216,14.78662236,.0011377,97.9958,219.1593,182.2458,177.8703,0,U,36795,999,85991,.76147E-4,.506E-5,0
YAOGAN-10,2010-038A,2026-06-17T15:17:12.480864,14.85349271,.0001644,97.8968,192.0373,85.7875,62.5598,0,U,36834,999,85727,.15102801E-3,.1245E-4,0
COSMO-SKYMED 4,2010-060A,2026-06-17T15:30:39.252960,14.82151852,.0001384,97.8879,352.2388,80.6517,279.4853,0,U,37216,999,84463,-.21232057E-4,-.221E-5,0
RESOURCESAT-2,2011-015A,2026-06-17T13:57:37.751616,14.21606650,.00102136,98.7644,236.0208,254.2427,105.7624,0,U,37387,999,78623,.6256926E-4,.93E-6,0
HAIYANG-2A,2011-043A,2026-06-17T14:53:55.014432,13.74349848,.00059092,99.3390,171.2868,89.9637,270.2189,0,U,37781,999,74671,.15460111E-3,.102E-5,0
RASAT,2011-044D,2026-06-17T14:18:13.593888,14.68167440,.00202141,98.0583,259.9864,187.4084,284.8785,0,U,37791,999,79324,.10939916E-3,.582E-5,0
SRMSAT,2011-058D,2026-06-17T02:08:22.947072,14.11575544,.00117909,19.9723,60.0600,202.5356,269.2197,0,U,37841,999,75780,.49079014E-4,.356E-5,0
PLEIADES 1A,2011-076F,2026-06-17T14:45:04.817376,14.58572327,.00016689,98.1980,243.7120,94.1921,13.7108,0,U,38012,999,77205,.12502467E-3,.536E-5,0
ZIYUAN 1-02C (ZY 1-02C),2011-079A,2026-06-17T15:27:03.092256,14.38216014,.00054786,98.4073,235.9429,315.4542,166.6919,0,U,38038,999,75927,.20195661E-3,.57E-5,0
ARIRANG-3 (KOMPSAT-3),2012-025B,2026-06-17T13:55:25.415328,14.62206430,.00066884,98.1171,126.0333,108.3583,251.8346,0,U,38338,999,75140,.75962606E-4,.336E-5,0
EXACTVIEW-1 (ADS-1B),2012-039C,2026-06-17T07:27:52.438176,14.24984566,.00111761,98.9778,285.7040,166.0268,194.1222,0,U,38709,999,72272,.57180906E-4,.87E-6,0
SPOT 6,2012-047A,2026-06-17T14:37:35.264352,14.58564100,.00015106,98.2121,235.9135,91.4284,268.7088,0,U,38755,999,73311,.10752479E-3,.454E-5,0
PLEIADES 1B,2012-068A,2026-06-17T15:04:49.896192,14.58561453,.00016775,98.1951,243.6739,91.1258,269.0134,0,U,39019,999,72091,.95922357E-4,.4E-5,0
GOKTURK 2,2012-073A,2026-06-17T14:57:32.973120,14.75541979,.00015781,97.6810,6.0326,54.8633,305.2724,0,U,39030,999,72457,.3351E-8,-.47E-6,0
LANDSAT 8,2013-008A,2026-06-17T13:46:41.958336,14.57094791,.00013601,98.2302,238.7048,93.7956,266.3398,0,U,39084,999,69795,.69035219E-4,.265E-5,0
SARAL,2013-009A,2026-06-17T14:23:21.799104,14.32856055,.0000696,98.5556,355.1615,306.0441,54.0678,0,U,39086,999,69566,.39536406E-4,.64E-6,0
GAOFEN-1,2013-018A,2026-06-17T14:31:24.440736,14.76536990,.00156739,97.9098,240.6646,265.0464,94.8957,0,U,39150,999,70830,.61316309E-4,.377E-5,0
VNREDSAT 1,2013-021B,2026-06-17T15:15:04.807584,14.64857217,.00017369,97.9079,222.0347,88.2255,271.9148,0,U,39160,999,70035,.81720419E-4,.391E-5,0
ARIRANG-5 (KOMPSAT-5),2013-042A,2026-06-17T15:09:36.122976,15.04493674,.00054125,97.6200,355.3259,119.0562,241.1207,0,U,39227,999,70392,.59745281E-4,.776E-5,0
SKYSAT-A,2013-066C,2026-06-17T12:31:30.241920,15.12977548,.00200687,97.3812,217.9085,316.3079,43.6563,0,U,39418,999,68853,.11750309E-3,.2018E-4,0
DUBAISAT-2,2013-066D,2026-06-17T14:25:15.174912,15.10179341,.00123355,97.4555,158.7344,38.9868,321.2249,0,U,39419,999,68645,.8241274E-4,.1285E-4,0
GPM-CORE,2014-009C,2026-06-17T14:20:59.875872,15.44578723,.0011835,64.9727,306.7509,251.6411,108.3443,0,U,39574,999,69787,.20522589E-3,.9371E-4,0
SENTINEL-1A,2014-016A,2026-06-17T13:45:25.255872,14.59198661,.00014363,98.1772,176.1005,79.3917,280.7445,0,U,39634,999,65007,-.99349825E-4,-.514E-5,0
KAZEOSAT 1,2014-024A,2026-06-17T13:50:32.953056,14.42081406,.00013766,98.3209,241.0144,73.8930,286.2412,0,U,39731,999,63861,.15525706E-3,.467E-5,0
