DUBAISAT-1              
1 35682U 09041B   26168.36039689  .00000567  00000+0  91483-4 0  9991
2 35682  98.0052 301.6162 0011648  73.2818 286.9668 14.75122684905120
OCEANSAT-2              
1 35931U 09051A   26168.62846086 -.00000140  00000+0 -70275-4 0  9990
2 35931  98.2324 155.4359 0015234 234.6311 125.3433 13.99664354879395
WORLDVIEW-2 (WV-2)      
1 35946U 09055A   26168.58131464  .00000083  00000+0  41950-4 0  9994
2 35946  98.4737 242.0254 0003731 206.6093 153.4903 14.37899509875703
SMOS                    
1 36036U 09059A   26168.53700677  .00000178  00000+0  70793-4 0  9994
2 36036  98.4424 355.8667 0001322  88.3589 271.7751 14.39772733873509
YAOGAN-7                
1 36110U 09069A   26168.29188649  .00000394  00000+0  61664-4 0  9997
2 36110  98.0071  54.1583 0025567  41.4114 318.9029 14.78009921889642
TANDEM-X                
1 36605U 10030A   26166.54501978  .00000388  00000+0  21672-4 0  9994
2 36605  97.4452 174.2763 0001884  86.9240 273.2210 15.19149123886390
CARTOSAT-2B             
1 36795U 10035A   26168.61036594  .00000506  00000+0  76147-4 0  9995
2 36795  97.9958 219.1593 0011377 182.2458 177.8703 14.78662236859918
YAOGAN-10               
1 36834U 10038A   26168.63695001  .00001245  00000+0  15103-3 0  9993
2 36834  97.8968 192.0373 0001644  85.7875  62.5598 14.85349271857271
COSMO-SKYMED 4          
1 37216U 10060A   26168.64628765 -.00000221  00000+0 -21232-4 0  9993
2 37216  97.8879 352.2388 0001384  80.6517 279.4853 14.82151852844633
RESOURCESAT-2           
1 37387U 11015A   26168.58168694  .00000093  00000+0  62569-4 0  9999
2 37387  98.7644 236.0208 0010213 254.2427 105.7624 14.21606650786234
HAIYANG-2A              
1 37781U 11043A   26168.62077563  .00000102  00000+0  15460-3 0  9995
2 37781  99.3390 171.2868 0005909  89.9637 270.2189 13.74349848746714
RASAT                   
1 37791U 11044D   26168.59599067  .00000582  00000+0  10940-3 0  9991
2 37791  98.0583 259.9864 0020214 187.4084 284.8785 14.68167440793244
SRMSAT                  
1 37841U 11058D   26168.08915448  .00000356  00000+0  49079-4 0  9996
2 37841  19.9723  60.0600 0011790 202.5356 269.2197 14.11575544757809
PLEIADES 1A             
1 38012U 11076F   26168.61463909  .00000536  00000+0  12502-3 0  9996
2 38012  98.1980 243.7120 0001668  94.1921  13.7108 14.58572327772052
ZIYUAN 1-02C (ZY 1-02C) 
1 38038U 11079A   26168.64378579  .00000570  00000+0  20196-3 0  9994
2 38038  98.4073 235.9429 0005478 315.4542 166.6919 14.38216014759275
ARIRANG-3 (KOMPSAT-3)   
1 38338U 12025B   26168.58015527  .00000336  00000+0  75963-4 0  9996
2 38338  98.1171 126.0333 0006688 108.3583 251.8346 14.62206430751402
EXACTVIEW-1 (ADS-1B)    
1 38709U 12039C   26168.31102359  .00000087  00000+0  57181-4 0  9999
2 38709  98.9778 285.7040 0011176 166.0268 194.1222 14.24984566722728
SPOT 6                  
1 38755U 12047A   26168.60943593  .00000454  00000+0  10752-3 0  9994
2 38755  98.2121 235.9135 0001510  91.4284 268.7088 14.58564100733114
PLEIADES 1B             
1 39019U 12068A   26168.62835528  .00000400  00000+0  95922-4 0  9995
2 39019  98.1951 243.6739 0001677  91.1258 269.0134 14.58561453720914
GOKTURK 2               
1 39030U 12073A   26168.62329830 -.00000047  00000+0  33510-8 0  9995
2 39030  97.6810   6.0326 0001578  54.8633 305.2724 14.75541979724575
LANDSAT 8               
1 39084U 13008A   26168.57409674  .00000265  00000+0  69035-4 0  9990
2 39084  98.2302 238.7048 0001360  93.7956 266.3398 14.57094791697951
SARAL                   
1 39086U 13009A   26168.59955786  .00000064  00000+0  39536-4 0  9995
2 39086  98.5556 355.1615 0000696 306.0441  54.0678 14.32856055695662
GAOFEN-1                
1 39150U 13018A   26168.60514399  .00000377  00000+0  61316-4 0  9998
2 39150  97.9098 240.6646 0015673 265.0464  94.8957 14.76536990708309
VNREDSAT 1              
1 39160U 13021B   26168.63547231  .00000391  00000+0  81720-4 0  9994
2 39160  97.9079 222.0347 0001736  88.2255 271.9148 14.64857217700351
ARIRANG-5 (KOMPSAT-5)   
1 39227U 13042A   26168.63166809  .00000776  00000+0  59745-4 0  9998
2 39227  97.6200 355.3259 0005412 119.0562 241.1207 15.04493674703928
SKYSAT-A                
1 39418U 13066C   26168.52187780  .00002018  00000+0  11750-3 0  9999
2 39418  97.3812 217.9085 0020068 316.3079  43.6563 15.12977548688530
DUBAISAT-2              
1 39419U 13066D   26168.60087008  .00001285  00000+0  82413-4 0  9991
2 39419  97.4555 158.7344 0012335  38.9868 321.2249 15.10179341686455
GPM-CORE                
1 39574U 14009C   26168.59791523  .00009371  00000+0  20523-3 0  9990
2 39574  64.9727 306.7509 0011835 251.6411 108.3443 15.44578723697879
SENTINEL-1A             
1 39634U 14016A   26168.57320898 -.00000514  00000+0 -99350-4 0  9993
2 39634  98.1772 176.1005 0001436  79.3917 280.7445 14.59198661650079
KAZEOSAT 1              
1 39731U 14024A   26168.57677029  .00000467  00000+0  15526-3 0  9998
2 39731  98.3209 241.0144 0001376  73.8930 286.2412 14.42081406638618
